[{"OBJECT_NAME":"KUIPER-00290","OBJECT_ID":"2026-072V","EPOCH":"2026-04-29T19:20:22.009920","MEAN_MOTION":15.36381564,"ECCENTRICITY":0.0010867,"INCLINATION":51.8679,"RA_OF_ASC_NODE":51.1383,"ARG_OF_PERICENTER":207.1707,"MEAN_ANOMALY":152.8711,"EPHEMERIS_TYPE":0,"CLASSIFICATION_TYPE":"U","NORAD_CAT_ID":68592,"ELEMENT_SET_NO":999,"REV_AT_EPOCH":393,"BSTAR":0.00075139,"MEAN_MOTION_DOT":0.0002683,"MEAN_MOTION_DDOT":0},{"OBJECT_NAME":"KUIPER-00293","OBJECT_ID":"2026-072W","EPOCH":"2026-04-29T05:27:35.529120","MEAN_MOTION":15.3564217,"ECCENTRICITY":0.0010902,"INCLINATION":51.866,"RA_OF_ASC_NODE":54.0121,"ARG_OF_PERICENTER":212.009,"MEAN_ANOMALY":148.0234,"EPHEMERIS_TYPE":0,"CLASSIFICATION_TYPE":"U","NORAD_CAT_ID":68593,"ELEMENT_SET_NO":999,"REV_AT_EPOCH":384,"BSTAR":0.00081531,"MEAN_MOTION_DOT":0.00028461,"MEAN_MOTION_DDOT":0},{"OBJECT_NAME":"KUIPER-00294","OBJECT_ID":"2026-072X","EPOCH":"2026-04-29T13:00:16.811136","MEAN_MOTION":15.36608033,"ECCENTRICITY":0.0009341,"INCLINATION":51.8687,"RA_OF_ASC_NODE":52.3791,"ARG_OF_PERICENTER":205.3592,"MEAN_ANOMALY":154.6937,"EPHEMERIS_TYPE":0,"CLASSIFICATION_TYPE":"U","NORAD_CAT_ID":68594,"ELEMENT_SET_NO":999,"REV_AT_EPOCH":389,"BSTAR":0.00073321,"MEAN_MOTION_DOT":0.0002635,"MEAN_MOTION_DDOT":0},{"OBJECT_NAME":"KUIPER-00296","OBJECT_ID":"2026-072Y","EPOCH":"2026-04-29T12:51:13.449312","MEAN_MOTION":15.37012495,"ECCENTRICITY":0.00084649,"INCLINATION":51.8736,"RA_OF_ASC_NODE":52.3402,"ARG_OF_PERICENTER":199.3141,"MEAN_ANOMALY":160.7526,"EPHEMERIS_TYPE":0,"CLASSIFICATION_TYPE":"U","NORAD_CAT_ID":68595,"ELEMENT_SET_NO":999,"REV_AT_EPOCH":389,"BSTAR":0.00087672228,"MEAN_MOTION_DOT":0.0003202,"MEAN_MOTION_DDOT":0},{"OBJECT_NAME":"KUIPER-00297","OBJECT_ID":"2026-072Z","EPOCH":"2026-04-29T13:04:04.851840","MEAN_MOTION":15.36282627,"ECCENTRICITY":0.0010167,"INCLINATION":51.8643,"RA_OF_ASC_NODE":52.3842,"ARG_OF_PERICENTER":202.8547,"MEAN_ANOMALY":157.1988,"EPHEMERIS_TYPE":0,"CLASSIFICATION_TYPE":"U","NORAD_CAT_ID":68596,"ELEMENT_SET_NO":999,"REV_AT_EPOCH":389,"BSTAR":0.0010038,"MEAN_MOTION_DOT":0.00035894,"MEAN_MOTION_DDOT":0},{"OBJECT_NAME":"KUIPER-00300","OBJECT_ID":"2026-072AA","EPOCH":"2026-04-29T11:12:59.649984","MEAN_MOTION":15.37204904,"ECCENTRICITY":0.00075668,"INCLINATION":51.8692,"RA_OF_ASC_NODE":52.6319,"ARG_OF_PERICENTER":198.8288,"MEAN_ANOMALY":161.242,"EPHEMERIS_TYPE":0,"CLASSIFICATION_TYPE":"U","NORAD_CAT_ID":68597,"ELEMENT_SET_NO":999,"REV_AT_EPOCH":388,"BSTAR":0.00069377383,"MEAN_MOTION_DOT":0.00025387,"MEAN_MOTION_DDOT":0},{"OBJECT_NAME":"KUIPER-00301","OBJECT_ID":"2026-072AB","EPOCH":"2026-04-29T19:08:47.688288","MEAN_MOTION":15.36889423,"ECCENTRICITY":0.0008745,"INCLINATION":51.8653,"RA_OF_ASC_NODE":51.0872,"ARG_OF_PERICENTER":200.7228,"MEAN_ANOMALY":159.3405,"EPHEMERIS_TYPE":0,"CLASSIFICATION_TYPE":"U","NORAD_CAT_ID":68598,"ELEMENT_SET_NO":999,"REV_AT_EPOCH":393,"BSTAR":0.0010481,"MEAN_MOTION_DOT":0.00038237,"MEAN_MOTION_DDOT":0},{"OBJECT_NAME":"KUIPER-00304","OBJECT_ID":"2026-072AC","EPOCH":"2026-04-29T19:10:56.896032","MEAN_MOTION":15.36792103,"ECCENTRICITY":0.0009181,"INCLINATION":51.8685,"RA_OF_ASC_NODE":51.1023,"ARG_OF_PERICENTER":202.9123,"MEAN_ANOMALY":157.1455,"EPHEMERIS_TYPE":0,"CLASSIFICATION_TYPE":"U","NORAD_CAT_ID":68599,"ELEMENT_SET_NO":999,"REV_AT_EPOCH":393,"BSTAR":0.00077356,"MEAN_MOTION_DOT":0.00027994,"MEAN_MOTION_DDOT":0},{"OBJECT_NAME":"KUIPER-00317","OBJECT_ID":"2026-072AD","EPOCH":"2026-04-29T12:50:02.657472","MEAN_MOTION":15.36946484,"ECCENTRICITY":0.00089093,"INCLINATION":51.87,"RA_OF_ASC_NODE":52.3311,"ARG_OF_PERICENTER":193.5362,"MEAN_ANOMALY":166.5387,"EPHEMERIS_TYPE":0,"CLASSIFICATION_TYPE":"U","NORAD_CAT_ID":68600,"ELEMENT_SET_NO":999,"REV_AT_EPOCH":389,"BSTAR":0.0007463421,"MEAN_MOTION_DOT":0.00027126,"MEAN_MOTION_DDOT":0},{"OBJECT_NAME":"KUIPER-00320","OBJECT_ID":"2026-072AE","EPOCH":"2026-04-29T19:23:30.819840","MEAN_MOTION":15.36124594,"ECCENTRICITY":0.0010998,"INCLINATION":51.8624,"RA_OF_ASC_NODE":51.1451,"ARG_OF_PERICENTER":206.3744,"MEAN_ANOMALY":153.6683,"EPHEMERIS_TYPE":0,"CLASSIFICATION_TYPE":"U","NORAD_CAT_ID":68601,"ELEMENT_SET_NO":999,"REV_AT_EPOCH":393,"BSTAR":0.00037487,"MEAN_MOTION_DOT":0.00013054,"MEAN_MOTION_DDOT":0},{"OBJECT_NAME":"STARLINK-37135","OBJECT_ID":"2026-073A","EPOCH":"2026-04-29T19:54:59.834016","MEAN_MOTION":15.75250342,"ECCENTRICITY":0.0001631,"INCLINATION":97.2834,"RA_OF_ASC_NODE":318.0755,"ARG_OF_PERICENTER":62.2344,"MEAN_ANOMALY":297.9086,"EPHEMERIS_TYPE":0,"CLASSIFICATION_TYPE":"U","NORAD_CAT_ID":68602,"ELEMENT_SET_NO":999,"REV_AT_EPOCH":360,"BSTAR":0.0012699,"MEAN_MOTION_DOT":0.00194152,"MEAN_MOTION_DDOT":0},{"OBJECT_NAME":"STARLINK-37189","OBJECT_ID":"2026-073B","EPOCH":"2026-04-29T20:00:01.999008","MEAN_MOTION":15.75152018,"ECCENTRICITY":0.0001376,"INCLINATION":97.283,"RA_OF_ASC_NODE":318.1486,"ARG_OF_PERICENTER":89.8032,"MEAN_ANOMALY":92.1587,"EPHEMERIS_TYPE":0,"CLASSIFICATION_TYPE":"U","NORAD_CAT_ID":68603,"ELEMENT_SET_NO":999,"REV_AT_EPOCH":475,"BSTAR":0.00026881,"MEAN_MOTION_DOT":0.00040088,"MEAN_MOTION_DDOT":0},{"OBJECT_NAME":"STARLINK-37130","OBJECT_ID":"2026-073C","EPOCH":"2026-04-29T19:40:15.739968","MEAN_MOTION":15.75214739,"ECCENTRICITY":0.0001857,"INCLINATION":97.2827,"RA_OF_ASC_NODE":318.0884,"ARG_OF_PERICENTER":73.7301,"MEAN_ANOMALY":286.4168,"EPHEMERIS_TYPE":0,"CLASSIFICATION_TYPE":"U","NORAD_CAT_ID":68604,"ELEMENT_SET_NO":999,"REV_AT_EPOCH":360,"BSTAR":0.00076415,"MEAN_MOTION_DOT":0.00115529,"MEAN_MOTION_DDOT":0},{"OBJECT_NAME":"STARLINK-37131","OBJECT_ID":"2026-073D","EPOCH":"2026-04-29T19:16:52.984128","MEAN_MOTION":15.75218806,"ECCENTRICITY":0.0001636,"INCLINATION":97.2827,"RA_OF_ASC_NODE":318.111,"ARG_OF_PERICENTER":94.2514,"MEAN_ANOMALY":265.8938,"EPHEMERIS_TYPE":0,"CLASSIFICATION_TYPE":"U","NORAD_CAT_ID":68605,"ELEMENT_SET_NO":999,"REV_AT_EPOCH":360,"BSTAR":0.0010293,"MEAN_MOTION_DOT":0.00156434,"MEAN_MOTION_DDOT":0},{"OBJECT_NAME":"STARLINK-37253","OBJECT_ID":"2026-073E","EPOCH":"2026-04-29T20:00:01.999008","MEAN_MOTION":15.75168951,"ECCENTRICITY":7.9e-5,"INCLINATION":97.2837,"RA_OF_ASC_NODE":318.1769,"ARG_OF_PERICENTER":91.8019,"MEAN_ANOMALY":156.1466,"EPHEMERIS_TYPE":0,"CLASSIFICATION_TYPE":"U","NORAD_CAT_ID":68606,"ELEMENT_SET_NO":999,"REV_AT_EPOCH":475,"BSTAR":7.1328e-5,"MEAN_MOTION_DOT":0.00010512,"MEAN_MOTION_DDOT":0},{"OBJECT_NAME":"STARLINK-37246","OBJECT_ID":"2026-073F","EPOCH":"2026-04-29T19:48:53.842752","MEAN_MOTION":15.7524515,"ECCENTRICITY":0.0001569,"INCLINATION":97.2829,"RA_OF_ASC_NODE":318.0801,"ARG_OF_PERICENTER":96.3124,"MEAN_ANOMALY":263.8319,"EPHEMERIS_TYPE":0,"CLASSIFICATION_TYPE":"U","NORAD_CAT_ID":68607,"ELEMENT_SET_NO":999,"REV_AT_EPOCH":360,"BSTAR":0.00097086,"MEAN_MOTION_DOT":0.00147562,"MEAN_MOTION_DDOT":0},{"OBJECT_NAME":"STARLINK-37243","OBJECT_ID":"2026-073G","EPOCH":"2026-04-29T18:43:32.038752","MEAN_MOTION":15.80903396,"ECCENTRICITY":0.0001128,"INCLINATION":97.2829,"RA_OF_ASC_NODE":318.1434,"ARG_OF_PERICENTER":80.8442,"MEAN_ANOMALY":279.2954,"EPHEMERIS_TYPE":0,"CLASSIFICATION_TYPE":"U","NORAD_CAT_ID":68608,"ELEMENT_SET_NO":999,"REV_AT_EPOCH":360,"BSTAR":0.0011533,"MEAN_MOTION_DOT":0.00227541,"MEAN_MOTION_DDOT":0}]
