KUIPER-00290            
1 68592U 26072V   26119.80581030  .00026830  00000+0  75139-3 0  9997
2 68592  51.8679  51.1383 0010867 207.1707 152.8711 15.36381564  3937
KUIPER-00293            
1 68593U 26072W   26119.22749455  .00028461  00000+0  81531-3 0  9996
2 68593  51.8660  54.0121 0010902 212.0090 148.0234 15.35642170  3849
KUIPER-00294            
1 68594U 26072X   26119.54186124  .00026350  00000+0  73321-3 0  9993
2 68594  51.8687  52.3791 0009341 205.3592 154.6937 15.36608033  3899
KUIPER-00296            
1 68595U 26072Y   26119.53557233  .00032020  00000+0  87672-3 0  9991
2 68595  51.8736  52.3402 0008464 199.3141 160.7526 15.37012495  3895
KUIPER-00297            
1 68596U 26072Z   26119.54450060  .00035894  00000+0  10038-2 0  9996
2 68596  51.8643  52.3842 0010167 202.8547 157.1988 15.36282627  3891
KUIPER-00300            
1 68597U 26072AA  26119.46735706  .00025387  00000+0  69377-3 0  9998
2 68597  51.8692  52.6319 0007566 198.8288 161.2420 15.37204904  3882
KUIPER-00301            
1 68598U 26072AB  26119.79777417  .00038237  00000+0  10481-2 0  9999
2 68598  51.8653  51.0872 0008745 200.7228 159.3405 15.36889423  3935
KUIPER-00304            
1 68599U 26072AC  26119.79926963  .00027994  00000+0  77356-3 0  9995
2 68599  51.8685  51.1023 0009181 202.9123 157.1455 15.36792103  3932
KUIPER-00317            
1 68600U 26072AD  26119.53475298  .00027126  00000+0  74634-3 0  9993
2 68600  51.8700  52.3311 0008909 193.5362 166.5387 15.36946484  3899
KUIPER-00320            
1 68601U 26072AE  26119.80799560  .00013054  00000+0  37487-3 0  9995
2 68601  51.8624  51.1451 0010998 206.3744 153.6683 15.36124594  3936
STARLINK-37135          
1 68602U 26073A   26119.82985919  .00194152  00000+0  12699-2 0  9990
2 68602  97.2834 318.0755 0001631  62.2344 297.9086 15.75250342  3602
STARLINK-37189          
1 68603U 26073B   26119.83335647  .00040088  00000+0  26881-3 0  9996
2 68603  97.2830 318.1486 0001376  89.8032  92.1587 15.75152018  4755
STARLINK-37130          
1 68604U 26073C   26119.81962662  .00115529  00000+0  76415-3 0  9999
2 68604  97.2827 318.0884 0001857  73.7301 286.4168 15.75214739  3603
STARLINK-37131          
1 68605U 26073D   26119.80339102  .00156434  00000+0  10293-2 0  9997
2 68605  97.2827 318.1110 0001636  94.2514 265.8938 15.75218806  3601
STARLINK-37253          
1 68606U 26073E   26119.83335647  .00010512  00000+0  71328-4 0  9995
2 68606  97.2837 318.1769 0000790  91.8019 156.1466 15.75168951  4756
STARLINK-37246          
1 68607U 26073F   26119.82562318  .00147562  00000+0  97086-3 0  9996
2 68607  97.2829 318.0801 0001569  96.3124 263.8319 15.75245150  3609
STARLINK-37243          
1 68608U 26073G   26119.78023193  .00227541  00000+0  11533-2 0  9993
2 68608  97.2829 318.1434 0001128  80.8442 279.2954 15.80903396  3600
